ONEWEB-0207             
1 48242U 21031AJ  25037.49918701  .00000228  00000+0  57938-3 0  9999
2 48242  87.9003  28.2420 0001772  79.9185 280.2145 13.14504012183176
ONEWEB-0208             
1 48243U 21031AK  25037.48095864  .00000139  00000+0  33951-3 0  9995
2 48243  87.9003  28.2598 0002008  85.5945 274.5414 13.14503368183182
ONEWEB-0200             
1 48244U 21031AL  25037.52059371 -.00000052  00000+0 -17392-3 0  9991
2 48244  87.9004  28.2458 0002036  86.1308 274.0055 13.14503622183123
ONEWEB-0217             
1 48245U 21031AM  25037.46033587 -.00000167  00000+0 -48495-3 0  9991
2 48245  87.9002  28.2421 0002181  87.3912 272.7468 13.14503522183051
ONEWEB-0211             
1 48767U 21045A   25037.42938146  .00000101  00000+0  23415-3 0  9997
2 48767  87.9109 357.8921 0001891  87.5841 272.5506 13.15551963180369
ONEWEB-0223             
1 48768U 21045B   25037.37553116 -.00000310  00000+0 -85654-3 0  9999
2 48768  87.9114 357.9169 0002106  96.6580 263.4790 13.15547953180359
ONEWEB-0230             
1 48769U 21045C   25037.42308354  .00000143  00000+0  34543-3 0  9991
2 48769  87.9093 357.9737 0001681  84.9141 275.2181 13.15549545179483
ONEWEB-0237             
1 48770U 21045D   25037.41199532  .00000208  00000+0  51770-3 0  9991
2 48770  87.9117 357.9232 0001944  93.7449 266.3903 13.15549251179200
